[{"OBJECT_NAME":"ONEWEB-0614","OBJECT_ID":"2023-004S","EPOCH":"2025-12-05T06:50:31.177248","MEAN_MOTION":13.11419339,"ECCENTRICITY":0.0001475,"INCLINATION":87.8862,"RA_OF_ASC_NODE":59.6981,"ARG_OF_PERICENTER":114.2172,"MEAN_ANOMALY":245.911,"EPHEMERIS_TYPE":0,"CLASSIFICATION_TYPE":"U","NORAD_CAT_ID":55156,"ELEMENT_SET_NO":999,"REV_AT_EPOCH":14042,"BSTAR":0.0012032724,"MEAN_MOTION_DOT":4.39e-6,"MEAN_MOTION_DDOT":0},{"OBJECT_NAME":"ONEWEB-0616","OBJECT_ID":"2023-004T","EPOCH":"2025-12-05T04:50:57.151104","MEAN_MOTION":13.1764937,"ECCENTRICITY":0.00027095,"INCLINATION":87.9128,"RA_OF_ASC_NODE":44.435,"ARG_OF_PERICENTER":95.955,"MEAN_ANOMALY":264.189,"EPHEMERIS_TYPE":0,"CLASSIFICATION_TYPE":"U","NORAD_CAT_ID":55157,"ELEMENT_SET_NO":999,"REV_AT_EPOCH":14215,"BSTAR":0.00014143846,"MEAN_MOTION_DOT":6.8e-7,"MEAN_MOTION_DDOT":0},{"OBJECT_NAME":"ONEWEB-0617","OBJECT_ID":"2023-004U","EPOCH":"2025-12-05T06:33:24.686496","MEAN_MOTION":13.11420116,"ECCENTRICITY":0.00013331,"INCLINATION":87.8864,"RA_OF_ASC_NODE":59.6796,"ARG_OF_PERICENTER":106.9437,"MEAN_ANOMALY":253.1837,"EPHEMERIS_TYPE":0,"CLASSIFICATION_TYPE":"U","NORAD_CAT_ID":55158,"ELEMENT_SET_NO":999,"REV_AT_EPOCH":14044,"BSTAR":6.394824e-6,"MEAN_MOTION_DOT":1.5e-7,"MEAN_MOTION_DDOT":0},{"OBJECT_NAME":"ONEWEB-0618","OBJECT_ID":"2023-004V","EPOCH":"2025-12-05T06:38:02.740704","MEAN_MOTION":15.10498372,"ECCENTRICITY":0.00110318,"INCLINATION":86.9087,"RA_OF_ASC_NODE":256.2527,"ARG_OF_PERICENTER":303.0324,"MEAN_ANOMALY":56.9854,"EPHEMERIS_TYPE":0,"CLASSIFICATION_TYPE":"U","NORAD_CAT_ID":55159,"ELEMENT_SET_NO":999,"REV_AT_EPOCH":15296,"BSTAR":0.00099688288,"MEAN_MOTION_DOT":0.00016482,"MEAN_MOTION_DDOT":0},{"OBJECT_NAME":"ONEWEB-0619","OBJECT_ID":"2023-004W","EPOCH":"2025-12-05T03:47:46.713120","MEAN_MOTION":13.17648855,"ECCENTRICITY":0.00020298,"INCLINATION":87.9125,"RA_OF_ASC_NODE":44.4177,"ARG_OF_PERICENTER":113.3974,"MEAN_ANOMALY":246.7371,"EPHEMERIS_TYPE":0,"CLASSIFICATION_TYPE":"U","NORAD_CAT_ID":55160,"ELEMENT_SET_NO":999,"REV_AT_EPOCH":14204,"BSTAR":0.0001594035,"MEAN_MOTION_DOT":7.5e-7,"MEAN_MOTION_DDOT":0},{"OBJECT_NAME":"ONEWEB-0620","OBJECT_ID":"2023-004X","EPOCH":"2025-12-05T06:26:05.104032","MEAN_MOTION":13.11419437,"ECCENTRICITY":0.0001518,"INCLINATION":87.8864,"RA_OF_ASC_NODE":59.7003,"ARG_OF_PERICENTER":98.0309,"MEAN_ANOMALY":262.0991,"EPHEMERIS_TYPE":0,"CLASSIFICATION_TYPE":"U","NORAD_CAT_ID":55161,"ELEMENT_SET_NO":999,"REV_AT_EPOCH":14041,"BSTAR":-0.00071709481,"MEAN_MOTION_DOT":-2.41e-6,"MEAN_MOTION_DDOT":0},{"OBJECT_NAME":"ONEWEB-0621","OBJECT_ID":"2023-004Y","EPOCH":"2025-12-05T07:05:09.490272","MEAN_MOTION":13.11418705,"ECCENTRICITY":0.00016896,"INCLINATION":87.8869,"RA_OF_ASC_NODE":59.6649,"ARG_OF_PERICENTER":111.1702,"MEAN_ANOMALY":248.9607,"EPHEMERIS_TYPE":0,"CLASSIFICATION_TYPE":"U","NORAD_CAT_ID":55162,"ELEMENT_SET_NO":999,"REV_AT_EPOCH":14039,"BSTAR":0.0018903047,"MEAN_MOTION_DOT":6.83e-6,"MEAN_MOTION_DDOT":0},{"OBJECT_NAME":"ONEWEB-0622","OBJECT_ID":"2023-004Z","EPOCH":"2025-12-05T05:22:37.648704","MEAN_MOTION":13.11415548,"ECCENTRICITY":0.00010166,"INCLINATION":87.8858,"RA_OF_ASC_NODE":59.6887,"ARG_OF_PERICENTER":123.6407,"MEAN_ANOMALY":236.4818,"EPHEMERIS_TYPE":0,"CLASSIFICATION_TYPE":"U","NORAD_CAT_ID":55163,"ELEMENT_SET_NO":999,"REV_AT_EPOCH":14037,"BSTAR":0.0016191888,"MEAN_MOTION_DOT":5.87e-6,"MEAN_MOTION_DDOT":0},{"OBJECT_NAME":"ONEWEB-0623","OBJECT_ID":"2023-004AA","EPOCH":"2025-12-05T03:40:29.162784","MEAN_MOTION":13.17651513,"ECCENTRICITY":0.00015272,"INCLINATION":87.9116,"RA_OF_ASC_NODE":44.4688,"ARG_OF_PERICENTER":128.7161,"MEAN_ANOMALY":231.4108,"EPHEMERIS_TYPE":0,"CLASSIFICATION_TYPE":"U","NORAD_CAT_ID":55164,"ELEMENT_SET_NO":999,"REV_AT_EPOCH":14203,"BSTAR":0.0001761028,"MEAN_MOTION_DOT":8.1e-7,"MEAN_MOTION_DDOT":0},{"OBJECT_NAME":"ONEWEB-0624","OBJECT_ID":"2023-004AB","EPOCH":"2025-12-05T03:59:24.497664","MEAN_MOTION":13.1292102,"ECCENTRICITY":0.00016186,"INCLINATION":87.8942,"RA_OF_ASC_NODE":29.1681,"ARG_OF_PERICENTER":110.7735,"MEAN_ANOMALY":249.3568,"EPHEMERIS_TYPE":0,"CLASSIFICATION_TYPE":"U","NORAD_CAT_ID":55165,"ELEMENT_SET_NO":999,"REV_AT_EPOCH":14261,"BSTAR":-0.0006612853,"MEAN_MOTION_DOT":-2.27e-6,"MEAN_MOTION_DDOT":0},{"OBJECT_NAME":"ONEWEB-0625","OBJECT_ID":"2023-004AC","EPOCH":"2025-12-05T05:15:14.351904","MEAN_MOTION":13.17652524,"ECCENTRICITY":0.00019219,"INCLINATION":87.9117,"RA_OF_ASC_NODE":44.4508,"ARG_OF_PERICENTER":100.6993,"MEAN_ANOMALY":259.4355,"EPHEMERIS_TYPE":0,"CLASSIFICATION_TYPE":"U","NORAD_CAT_ID":55166,"ELEMENT_SET_NO":999,"REV_AT_EPOCH":14203,"BSTAR":0.00019245683,"MEAN_MOTION_DOT":8.8e-7,"MEAN_MOTION_DDOT":0},{"OBJECT_NAME":"ONEWEB-0626","OBJECT_ID":"2023-004AD","EPOCH":"2025-12-05T05:00:40.802112","MEAN_MOTION":13.17649206,"ECCENTRICITY":0.00015995,"INCLINATION":87.9117,"RA_OF_ASC_NODE":44.4526,"ARG_OF_PERICENTER":84,"MEAN_ANOMALY":276.1314,"EPHEMERIS_TYPE":0,"CLASSIFICATION_TYPE":"U","NORAD_CAT_ID":55167,"ELEMENT_SET_NO":999,"REV_AT_EPOCH":14203,"BSTAR":0.00025509197,"MEAN_MOTION_DOT":1.12e-6,"MEAN_MOTION_DDOT":0},{"OBJECT_NAME":"ONEWEB-0627","OBJECT_ID":"2023-004AE","EPOCH":"2025-12-05T04:43:40.012896","MEAN_MOTION":13.17649855,"ECCENTRICITY":0.0001404,"INCLINATION":87.9115,"RA_OF_ASC_NODE":44.4554,"ARG_OF_PERICENTER":118.8902,"MEAN_ANOMALY":241.237,"EPHEMERIS_TYPE":0,"CLASSIFICATION_TYPE":"U","NORAD_CAT_ID":55168,"ELEMENT_SET_NO":999,"REV_AT_EPOCH":14203,"BSTAR":7.7035836e-5,"MEAN_MOTION_DOT":4.3e-7,"MEAN_MOTION_DDOT":0},{"OBJECT_NAME":"ONEWEB-0628","OBJECT_ID":"2023-004AF","EPOCH":"2025-12-05T03:38:32.090784","MEAN_MOTION":13.12441098,"ECCENTRICITY":0.00017257,"INCLINATION":87.8949,"RA_OF_ASC_NODE":29.1958,"ARG_OF_PERICENTER":122.8039,"MEAN_ANOMALY":237.3256,"EPHEMERIS_TYPE":0,"CLASSIFICATION_TYPE":"U","NORAD_CAT_ID":55169,"ELEMENT_SET_NO":999,"REV_AT_EPOCH":14258,"BSTAR":0.00045033724,"MEAN_MOTION_DOT":1.75e-6,"MEAN_MOTION_DDOT":0},{"OBJECT_NAME":"ONEWEB-0629","OBJECT_ID":"2023-004AG","EPOCH":"2025-12-05T04:08:25.333152","MEAN_MOTION":13.17647724,"ECCENTRICITY":0.0001964,"INCLINATION":87.9114,"RA_OF_ASC_NODE":44.4574,"ARG_OF_PERICENTER":109.0715,"MEAN_ANOMALY":251.0629,"EPHEMERIS_TYPE":0,"CLASSIFICATION_TYPE":"U","NORAD_CAT_ID":55170,"ELEMENT_SET_NO":999,"REV_AT_EPOCH":14203,"BSTAR":1.9950369e-5,"MEAN_MOTION_DOT":2.1e-7,"MEAN_MOTION_DDOT":0},{"OBJECT_NAME":"ONEWEB-0631","OBJECT_ID":"2023-004AH","EPOCH":"2025-12-05T03:51:33.301440","MEAN_MOTION":13.18686025,"ECCENTRICITY":0.00013217,"INCLINATION":87.9189,"RA_OF_ASC_NODE":13.9691,"ARG_OF_PERICENTER":81.2582,"MEAN_ANOMALY":278.87,"EPHEMERIS_TYPE":0,"CLASSIFICATION_TYPE":"U","NORAD_CAT_ID":55171,"ELEMENT_SET_NO":999,"REV_AT_EPOCH":14410,"BSTAR":0.00014814566,"MEAN_MOTION_DOT":7.1e-7,"MEAN_MOTION_DDOT":0},{"OBJECT_NAME":"ONEWEB-0709","OBJECT_ID":"2023-004AJ","EPOCH":"2025-12-05T04:21:33.482592","MEAN_MOTION":13.1141896,"ECCENTRICITY":0.00016002,"INCLINATION":87.8857,"RA_OF_ASC_NODE":59.7207,"ARG_OF_PERICENTER":71.8698,"MEAN_ANOMALY":288.2605,"EPHEMERIS_TYPE":0,"CLASSIFICATION_TYPE":"U","NORAD_CAT_ID":55172,"ELEMENT_SET_NO":999,"REV_AT_EPOCH":14044,"BSTAR":-0.0013687606,"MEAN_MOTION_DOT":-4.72e-6,"MEAN_MOTION_DDOT":0}]
