ONEWEB-0614             
1 55156U 23004S   25339.28508307  .00000439  00000+0  12033-2 0  9992
2 55156  87.8862  59.6981 0001475 114.2172 245.9110 13.11419339140424
ONEWEB-0616             
1 55157U 23004T   25339.20205036  .00000068  00000+0  14144-3 0  9992
2 55157  87.9128  44.4350 0002709  95.9550 264.1890 13.17649370142155
ONEWEB-0617             
1 55158U 23004U   25339.27320239  .00000015  00000+0  63948-5 0  9993
2 55158  87.8864  59.6796 0001333 106.9437 253.1837 13.11420116140441
ONEWEB-0618             
1 55159U 23004V   25339.27642061  .00016482  00000+0  99688-3 0  9997
2 55159  86.9087 256.2527 0011031 303.0324  56.9854 15.10498372152965
ONEWEB-0619             
1 55160U 23004W   25339.15817955  .00000075  00000+0  15940-3 0  9992
2 55160  87.9125  44.4177 0002029 113.3974 246.7371 13.17648855142048
ONEWEB-0620             
1 55161U 23004X   25339.26811463 -.00000241  00000+0 -71709-3 0  9995
2 55161  87.8864  59.7003 0001518  98.0309 262.0991 13.11419437140412
ONEWEB-0621             
1 55162U 23004Y   25339.29524873  .00000683  00000+0  18903-2 0  9999
2 55162  87.8869  59.6649 0001689 111.1702 248.9607 13.11418705140397
ONEWEB-0622             
1 55163U 23004Z   25339.22404686  .00000587  00000+0  16192-2 0  9993
2 55163  87.8858  59.6887 0001016 123.6407 236.4818 13.11415548140370
ONEWEB-0623             
1 55164U 23004AA  25339.15311531  .00000081  00000+0  17610-3 0  9998
2 55164  87.9116  44.4688 0001527 128.7161 231.4108 13.17651513142032
ONEWEB-0624             
1 55165U 23004AB  25339.16625576 -.00000227  00000+0 -66129-3 0  9990
2 55165  87.8942  29.1681 0001618 110.7735 249.3568 13.12921020142611
ONEWEB-0625             
1 55166U 23004AC  25339.21891611  .00000088  00000+0  19246-3 0  9993
2 55166  87.9117  44.4508 0001921 100.6993 259.4355 13.17652524142033
ONEWEB-0626             
1 55167U 23004AD  25339.20880558  .00000112  00000+0  25509-3 0  9998
2 55167  87.9117  44.4526 0001599  84.0000 276.1314 13.17649206142033
ONEWEB-0627             
1 55168U 23004AE  25339.19699089  .00000043  00000+0  77036-4 0  9990
2 55168  87.9115  44.4554 0001404 118.8902 241.2370 13.17649855142030
ONEWEB-0628             
1 55169U 23004AF  25339.15176031  .00000175  00000+0  45034-3 0  9992
2 55169  87.8949  29.1958 0001725 122.8039 237.3256 13.12441098142588
ONEWEB-0629             
1 55170U 23004AG  25339.17251543  .00000021  00000+0  19950-4 0  9997
2 55170  87.9114  44.4574 0001964 109.0715 251.0629 13.17647724142038
ONEWEB-0631             
1 55171U 23004AH  25339.16080210  .00000071  00000+0  14815-3 0  9997
2 55171  87.9189  13.9691 0001321  81.2582 278.8700 13.18686025144107
ONEWEB-0709             
1 55172U 23004AJ  25339.18163753 -.00000472  00000+0 -13688-2 0  9997
2 55172  87.8857  59.7207 0001600  71.8698 288.2605 13.11418960140449
